H1 CPF 01  gfz 2022 05 16 12  6362 terrasarx 
H2 0702601  6201 31698    2022 05 16 12 59 42 2022 05 21 00 00 42   120 1 1  0 0 0
H9
10 0 59719  32382.000000  0   -4393724.079   4756813.308   2342668.535
10 0 59719  32502.000000  0   -4013781.610   4609149.140   3169703.004
10 0 59719  32622.000000  0   -3567013.606   4373660.916   3940920.213
10 0 59719  32742.000000  0   -3062756.152   4053395.005   4642755.326
10 0 59719  32862.000000  0   -2511284.481   3653056.692   5262879.023
10 0 59719  32982.000000  0   -1923599.239   3178936.597   5790413.420
10 0 59719  33102.000000  0   -1311202.950   2638806.125   6216119.140
10 0 59719  33222.000000  0    -685871.675   2041784.052   6532550.809
10 0 59719  33342.000000  0     -59428.565   1398178.767   6734179.861
10 0 59719  33462.000000  0     556479.367    719308.006   6817486.318
10 0 59719  33582.000000  0    1150597.230     17299.261   6781015.541
10 0 59719  33702.000000  0    1712266.662   -695125.852   6625402.475
10 0 59719  33822.000000  0    2231616.491  -1404881.681   6353361.817
10 0 59719  33942.000000  0    2699736.557  -2098757.908   5969644.297
10 0 59719  34062.000000  0    3108833.022  -2763666.125   5480959.283
10 0 59719  34182.000000  0    3452360.964  -3386888.325   4895863.045
10 0 59719  34302.000000  0    3725132.631  -3956323.508   4224614.990
10 0 59719  34422.000000  0    3923399.724  -4460727.528   3479002.056
10 0 59719  34542.000000  0    4044906.308  -4889940.917   2672133.499
10 0 59719  34662.000000  0    4088911.999  -5235099.359   1818209.553
10 0 59719  34782.000000  0    4056184.144  -5488821.156    932267.414
10 0 59719  34902.000000  0    3948958.456  -5645366.416     29909.818
10 0 59719  35022.000000  0    3770870.460  -5700764.679   -872976.678
10 0 59719  35142.000000  0    3526858.018  -5652908.355  -1760511.129
10 0 59719  35262.000000  0    3223037.010  -5501606.787  -2617105.575
10 0 59719  35382.000000  0    2866555.546  -5248602.510  -3427745.177
10 0 59719  35502.000000  0    2465428.401  -4897547.920  -4178255.325
10 0 59719  35622.000000  0    2028356.986  -4453944.209  -4855548.778
10 0 59719  35742.000000  0    1564540.722  -3925044.889  -5447848.781
10 0 59719  35862.000000  0    1083484.829  -3319727.627  -5944885.302
10 0 59719  35982.000000  0     594807.027  -2648338.227  -6338062.794
10 0 59719  36102.000000  0     108047.311  -1922509.185  -6620597.900
10 0 59719  36222.000000  0    -367514.687  -1154956.029  -6787625.630
10 0 59719  36342.000000  0    -823031.612   -359255.734  -6836274.291
10 0 59719  36462.000000  0   -1250248.444    450389.401  -6765708.882
10 0 59719  36582.000000  0   -1641648.706   1259398.676  -6577143.136
10 0 59719  36702.000000  0   -1990583.507   2053069.107  -6273820.779
10 0 59719  36822.000000  0   -2291382.747   2816836.003  -5860966.483
10 0 59719  36942.000000  0   -2539447.678   3536537.016  -5345705.859
10 0 59719  37062.000000  0   -2731322.262   4198674.069  -4736953.986
10 0 59719  37182.000000  0   -2864743.191   4790669.862  -4045272.266
10 0 59719  37302.000000  0   -2938665.684   5301112.117  -3282693.624
10 0 59719  37422.000000  0   -2953264.353   5719979.763  -2462520.870
10 0 59719  37542.000000  0   -2909910.463   6038849.639  -1599100.287
10 0 59719  37662.000000  0   -2811123.480   6251075.705   -707570.072
10 0 59719  37782.000000  0   -2660498.787   6351933.842    196407.467
10 0 59719  37902.000000  0   -2462614.723   6338733.990   1096926.627
10 0 59719  38022.000000  0   -2222916.559   6210889.880   1978130.064
10 0 59719  38142.000000  0   -1947581.774   5969943.048   2824497.887
10 0 59719  38262.000000  0   -1643372.189   5619544.563   3621128.234
10 0 59719  38382.000000  0   -1317476.600   5165395.395   4354004.839
10 0 59719  38502.000000  0    -977347.466   4615146.305   5010247.306
10 0 59719  38622.000000  0    -630533.674   3978259.137   5578337.677
10 0 59719  38742.000000  0    -284516.705   3265835.693   6048319.068
10 0 59719  38862.000000  0      53447.415   2490415.734   6411965.915
10 0 59719  38982.000000  0     376477.493   1665750.480   6662921.276
10 0 59719  39102.000000  0     678205.221    806555.008   6796802.526
10 0 59719  39222.000000  0     952898.943    -71755.883   6811272.051
10 0 59719  39342.000000  0    1195571.375   -953342.858   6706076.013
10 0 59719  39462.000000  0    1402069.841  -1822227.401   6483049.282
10 0 59719  39582.000000  0    1569147.609  -2662580.885   6146085.886
10 0 59719  39702.000000  0    1694515.155  -3459014.253   5701075.479
10 0 59719  39822.000000  0    1776870.129  -4196862.667   5155805.207
10 0 59719  39942.000000  0    1815906.318  -4862458.670   4519828.712
10 0 59719  40062.000000  0    1812302.087  -5443391.922   3804305.543
10 0 59719  40182.000000  0    1767687.290  -5928750.710   3021808.213
10 0 59719  40302.000000  0    1684587.922  -6309335.247   2186100.595
10 0 59719  40422.000000  0    1566352.083  -6577840.164   1311894.377
10 0 59719  40542.000000  0    1417057.876  -6729002.854    414585.759
10 0 59719  40662.000000  0    1241404.799  -6759712.231   -490022.770
10 0 59719  40782.000000  0    1044590.700  -6669075.170  -1386011.515
10 0 59719  40902.000000  0     832178.669  -6458433.759  -2257633.759
10 0 59719  41022.000000  0     609957.826  -6131338.088  -3089598.665
10 0 59719  41142.000000  0     383802.537  -5693476.941  -3867343.659
10 0 59719  41262.000000  0     159531.655  -5152566.773  -4577290.711
10 0 59719  41382.000000  0     -57228.377  -4518202.405  -5207079.958
10 0 59719  41502.000000  0    -261172.722  -3801675.454  -5745778.097
10 0 59719  41622.000000  0    -447437.126  -3015763.668  -6184058.981
10 0 59719  41742.000000  0    -611704.149  -2174496.695  -6514353.972
10 0 59719  41862.000000  0    -750295.177  -1292903.050  -6730971.120
10 0 59719  41982.000000  0    -860246.673   -386743.409  -6830183.504
10 0 59719  42102.000000  0    -939369.307    527767.255  -6810286.319
10 0 59719  42222.000000  0    -986289.430   1434242.694  -6671621.841
10 0 59719  42342.000000  0   -1000472.535   2316411.465  -6416574.133
10 0 59719  42462.000000  0    -982228.154   3158401.800  -6049533.158
10 0 59719  42582.000000  0    -932696.252   3945023.843  -5576828.399
10 0 59719  42702.000000  0    -853815.043   4662042.982  -5006629.951
10 0 59719  42822.000000  0    -748270.909   5296440.887  -4348819.139
10 0 59719  42942.000000  0    -619431.264   5836659.327  -3614827.345
10 0 59719  43062.000000  0    -471260.935   6272820.260  -2817445.340
10 0 59719  43182.000000  0    -308223.622   6596918.225  -1970606.256
10 0 59719  43302.000000  0    -135170.839   6802980.048  -1089143.854
10 0 59719  43422.000000  0      42779.544   6887186.711   -188530.830
10 0 59719  43542.000000  0     220372.547   6847953.880    715397.972
10 0 59719  43662.000000  0     392349.513   6685968.167   1606732.270
10 0 59719  43782.000000  0     553581.444   6404176.302   2469776.023
10 0 59719  43902.000000  0     699198.454   6007728.190   3289331.421
10 0 59719  44022.000000  0     824713.164   5503877.745   4050972.877
10 0 59719  44142.000000  0     926136.924   4901844.321   4741306.046
10 0 59719  44262.000000  0    1000081.036   4212631.016   5348208.770
10 0 59719  44382.000000  0    1043844.470   3448811.989   5861038.512
10 0 59719  44502.000000  0    1055486.219   2624295.798   6270814.792
10 0 59719  44622.000000  0    1033878.454   1754065.393   6570371.238
10 0 59719  44742.000000  0     978741.336    853901.217   6754475.086
10 0 59719  44862.000000  0     890658.656    -59907.014   6819912.068
10 0 59719  44982.000000  0     771073.916   -970853.625   6765539.398
10 0 59719  45102.000000  0     622266.589  -1862515.048   6592305.662
10 0 59719  45222.000000  0     447308.860  -2718845.666   6303235.575
10 0 59719  45342.000000  0     250003.616  -3524468.321   5903380.238
10 0 59719  45462.000000  0      34805.254  -4264951.472   5399731.273
10 0 59719  45582.000000  0    -193274.975  -4927069.689   4801105.246
10 0 59719  45702.000000  0    -428778.148  -5499047.039   4117997.757
10 0 59719  45822.000000  0    -665920.782  -5970777.484   3362403.641
10 0 59719  45942.000000  0    -898728.424  -6334013.156   2547607.435
10 0 59719  46062.000000  0   -1121175.308  -6582517.874   1687948.584
10 0 59719  46182.000000  0   -1327327.978  -6712183.568    798566.123
10 0 59719  46302.000000  0   -1511490.722  -6721104.269   -104876.098
10 0 59719  46422.000000  0   -1668345.435  -6609603.938  -1006474.461
10 0 59719  46542.000000  0   -1793083.995  -6380219.717  -1890374.205
10 0 59719  46662.000000  0   -1881530.261  -6037641.393  -2741055.781
10 0 59719  46782.000000  0   -1930248.786  -5588608.323  -3543613.503
10 0 59719  46902.000000  0   -1936637.032  -5041765.960  -4284019.799
10 0 59719  47022.000000  0   -1898998.806  -4407487.274  -4949368.704
10 0 59719  47142.000000  0   -1816597.998  -3697665.308  -5528095.005
10 0 59719  47262.000000  0   -1689691.878  -2925481.928  -6010167.034
10 0 59719  47382.000000  0   -1519543.187  -2105157.032  -6387250.925
10 0 59719  47502.000000  0   -1308411.026  -1251683.439  -6652843.070
10 0 59719  47622.000000  0   -1059521.849   -380553.992  -6802371.002
10 0 59719  47742.000000  0    -777020.877    492515.524  -6833263.276
10 0 59719  47862.000000  0    -465903.498   1351862.984  -6744988.312
10 0 59719  47982.000000  0    -131929.192   2182153.489  -6539062.306
10 0 59719  48102.000000  0     218481.027   2968646.244  -6219027.219
10 0 59719  48222.000000  0     578364.673   3697453.282  -5790397.849
10 0 59719  48342.000000  0     940352.003   4355783.677  -5260575.319
10 0 59719  48462.000000  0    1296811.772   4932170.135  -4638730.974
10 0 59719  48582.000000  0    1640007.615   5416675.805  -3935658.929
10 0 59719  48702.000000  0    1962261.560   5801074.482  -3163597.545
10 0 59719  48822.000000  0    2256120.976   6079001.068  -2336023.655
99
